[{"OBJECT_NAME":"STARLINK-30325","OBJECT_ID":"2023-129V","EPOCH":"2026-03-09T12:16:10.040448","MEAN_MOTION":15.26741436,"ECCENTRICITY":9.292e-5,"INCLINATION":43.0013,"RA_OF_ASC_NODE":119.0461,"ARG_OF_PERICENTER":281.5541,"MEAN_ANOMALY":78.5206,"EPHEMERIS_TYPE":0,"CLASSIFICATION_TYPE":"U","NORAD_CAT_ID":57717,"ELEMENT_SET_NO":999,"REV_AT_EPOCH":14065,"BSTAR":-1.7614466e-5,"MEAN_MOTION_DOT":-7.32e-6,"MEAN_MOTION_DDOT":0},{"OBJECT_NAME":"TRANSPORTER-10 OBJECT AG","OBJECT_ID":"2024-043AG","EPOCH":"2026-03-09T22:12:45.387648","MEAN_MOTION":15.30759727,"ECCENTRICITY":0.00093005,"INCLINATION":97.5471,"RA_OF_ASC_NODE":205.7101,"ARG_OF_PERICENTER":226.5958,"MEAN_ANOMALY":133.4509,"EPHEMERIS_TYPE":0,"CLASSIFICATION_TYPE":"U","NORAD_CAT_ID":59128,"ELEMENT_SET_NO":999,"REV_AT_EPOCH":11192,"BSTAR":0.00032170115,"MEAN_MOTION_DOT":9.498e-5,"MEAN_MOTION_DDOT":0}]
